GLOBALSTAR M057         
1 25943U 99058A   24336.87011115 -.00000028  00000+0  58703-3 0  9992
2 25943  51.9958 188.1808 0002416   2.3769 357.7091 12.24803981142755
GLOBALSTAR M059         
1 25944U 99058B   24336.86884118  .00000005  00000+0  11283-2 0  9998
2 25944  52.0046  20.9789 0000276 175.5075 355.6760 11.99971917550357
GLOBALSTAR M056         
1 25945U 99058C   24337.45333921 -.00000110  00000+0 -25938-3 0  9998
2 25945  51.9989  26.4053 0001285 150.4231 223.4587 12.04776778138956
GLOBALSTAR M031         
1 25946U 99058D   24336.67103534 -.00000100  00000+0 -91834-4 0  9995
2 25946  51.9972 292.7001 0001452 114.6921  56.6462 12.16022907140518
GLOBALSTAR M039         
1 25961U 99062A   24337.48026056 -.00000040  00000+0  35289-3 0  9993
2 25961  51.9818 147.8403 0001505 269.2847  90.7847 12.62312909155408
GLOBALSTAR M034         
1 25962U 99062B   24336.81358465 -.00000058  00000+0  36295-3 0  9999
2 25962  51.9836 164.4427 0014723  33.0940 340.0793 11.79436743115101
GLOBALSTAR M029         
1 25963U 99062C   24337.53117340 -.00000039  00000+0  58202-3 0  9996
2 25963  51.9809 267.3935 0003188  81.2055  90.4325 11.99888150145569
GLOBALSTAR M061         
1 25964U 99062D   24337.13941876 -.00000063  00000+0  28639-3 0  9990
2 25964  51.9818 345.0164 0005986 315.8197  79.1911 11.76768431 98273
